LANDSAT 9               
1 49260U 21088A   24129.20527631  .00000741  00000+0  17445-3 0  9999
2 49260  98.1886 199.4977 0001309  88.9821 271.1527 14.57114129138864
